{
  "links" : {
    "next" : "https://api.nasa.gov/neo/rest/v1/feed?start_date=2013-04-23&end_date=2013-04-23&detailed=true&api_key=t0TVs3DtDT2H8Oy2Zy8m2eVrNsAVKAexjcZXUckd",
    "prev" : "https://api.nasa.gov/neo/rest/v1/feed?start_date=2013-04-21&end_date=2013-04-21&detailed=true&api_key=t0TVs3DtDT2H8Oy2Zy8m2eVrNsAVKAexjcZXUckd",
    "self" : "https://api.nasa.gov/neo/rest/v1/feed?start_date=2013-04-22&end_date=2013-04-22&detailed=true&api_key=t0TVs3DtDT2H8Oy2Zy8m2eVrNsAVKAexjcZXUckd"
  },
  "element_count" : 7,
  "near_earth_objects" : {
    "2013-04-22" : [ {
      "links" : {
        "self" : "https://api.nasa.gov/neo/rest/v1/neo/3653215?api_key=t0TVs3DtDT2H8Oy2Zy8m2eVrNsAVKAexjcZXUckd"
      },
      "neo_reference_id" : "3653215",
      "name" : "(2013 US4)",
      "nasa_jpl_url" : "http://ssd.jpl.nasa.gov/sbdb.cgi?sstr=3653215",
      "absolute_magnitude_h" : 26.1,
      "estimated_diameter" : {
        "kilometers" : {
          "estimated_diameter_min" : 0.0160160338,
          "estimated_diameter_max" : 0.0358129403
        },
        "meters" : {
          "estimated_diameter_min" : 16.0160337979,
          "estimated_diameter_max" : 35.8129403019
        },
        "miles" : {
          "estimated_diameter_min" : 0.0099518989,
          "estimated_diameter_max" : 0.0222531225
        },
        "feet" : {
          "estimated_diameter_min" : 52.5460443254,
          "estimated_diameter_max" : 117.4965270602
        }
      },
      "is_potentially_hazardous_asteroid" : false,
      "close_approach_data" : [ {
        "close_approach_date" : "2013-04-22",
        "epoch_date_close_approach" : 1366614000000,
        "relative_velocity" : {
          "kilometers_per_second" : "5.3095496281",
          "kilometers_per_hour" : "19114.3786611463",
          "miles_per_hour" : "11876.9315630884"
        },
        "miss_distance" : {
          "astronomical" : "0.1007910473",
          "lunar" : "39.2077178955",
          "kilometers" : "15078126",
          "miles" : "9369113"
        },
        "orbiting_body" : "Earth"
      } ],
      "orbital_data" : {
        "orbit_id" : "5",
        "orbit_determination_date" : "2017-04-06 08:44:00",
        "orbit_uncertainty" : "7",
        "minimum_orbit_intersection" : ".0510451",
        "jupiter_tisserand_invariant" : "5.735",
        "epoch_osculation" : "2458000.5",
        "eccentricity" : ".08181943269142603",
        "semi_major_axis" : "1.074409198604479",
        "inclination" : "10.04212054146096",
        "ascending_node_longitude" : "29.67007901156041",
        "orbital_period" : "406.7738291936239",
        "perihelion_distance" : ".9865016474962109",
        "perihelion_argument" : "279.5717586790265",
        "aphelion_distance" : "1.162316749712747",
        "perihelion_time" : "2458134.967922661004",
        "mean_anomaly" : "240.9941823102909",
        "mean_motion" : ".885012688042525",
        "equinox" : "J2000"
      }
    } ]
  }
}